STARLINK-31008          
1 58636U 23203U   26068.40256636 -.00001492  00000+0 -44708-4 0  9996
2 58636  43.0042  69.0447 0001531 259.8871 100.1808 15.27575423124740
ION SCV-017             
1 63230U 25052W   26068.71648816  .00006457  00000+0  24539-3 0  9998
2 63230  97.4016 324.7516 0023746  44.9875 315.3282 15.26881798 54851
